start=new Date('2023-02-27T00:00:00.000Z').valueOf();
sats=[{"OBJECT_ID":"2020-055U","NORAD_CAT_ID":"46045","MEAN_ELEMENT_THEORY":"SGP4","TIME_SYSTEM":"UTC","TLE_LINE2":"2 46045  53.0542  56.0029 0001511  96.1454 263.9707 15.06393047142020","BSTAR":"0.00075117000000","FILE":"3843368","MEAN_MOTION_DDOT":"0.0000000000000","LAUNCH_DATE":"2020-08-07","DECAY_DATE":null,"TLE_LINE1":"1 46045U 20055U   23057.71971624  .00010923  00000-0  75117-3 0  9994","OBJECT_TYPE":"PAYLOAD","CENTER_NAME":"EARTH","APOAPSIS":"548.281","CLASSIFICATION_TYPE":"U","MEAN_ANOMALY":"263.9707","INCLINATION":"53.0542","SITE":"AFETR","RA_OF_ASC_NODE":"56.0029","ARG_OF_PERICENTER":"96.1454","ELEMENT_SET_NO":"999","MEAN_MOTION":"15.06393047","GP_ID":"227062410","MEAN_MOTION_DOT":"0.00010923","OBJECT_NAME":"STARLINK-1591","ECCENTRICITY":"0.00015110","COUNTRY_CODE":"US","EPHEMERIS_TYPE":"0","PERIAPSIS":"546.188","PERIOD":"95.593","REV_AT_EPOCH":"14202","REF_FRAME":"TEME","RCS_SIZE":"LARGE","SEMIMAJOR_AXIS":"6925.370","EPOCH":"2023-02-26T17:16:23.483136"},{"PERIAPSIS":"546.539","EPHEMERIS_TYPE":"0","PERIOD":"95.592","REV_AT_EPOCH":"14213","RCS_SIZE":"LARGE","SEMIMAJOR_AXIS":"6925.362","EPOCH":"2023-02-26T09:46:33.362976","REF_FRAME":"TEME","SITE":"AFETR","ARG_OF_PERICENTER":"102.4537","RA_OF_ASC_NODE":"47.4033","ELEMENT_SET_NO":"999","INCLINATION":"53.0567","MEAN_ANOMALY":"257.6564","GP_ID":"227004007","MEAN_MOTION":"15.06395759","COUNTRY_CODE":"US","ECCENTRICITY":"0.00009930","MEAN_MOTION_DOT":"0.00024906","OBJECT_NAME":"STARLINK-1524","DECAY_DATE":null,"LAUNCH_DATE":"2020-08-07","TLE_LINE1":"1 46047U 20055W   23057.40733059  .00024906  00000-0  16852-2 0  9996","CENTER_NAME":"EARTH","OBJECT_TYPE":"PAYLOAD","APOAPSIS":"547.914","CLASSIFICATION_TYPE":"U","OBJECT_ID":"2020-055W","MEAN_ELEMENT_THEORY":"SGP4","TIME_SYSTEM":"UTC","NORAD_CAT_ID":"46047","MEAN_MOTION_DDOT":"0.0000000000000","FILE":"3841853","TLE_LINE2":"2 46047  53.0567  47.4033 0000993 102.4537 257.6564 15.06395759142139","BSTAR":"0.00168520000000"},{"MEAN_MOTION_DOT":"0.00019679","OBJECT_NAME":"STARLINK-1527","COUNTRY_CODE":"US","ECCENTRICITY":"0.00015050","MEAN_MOTION":"15.06408613","GP_ID":"227063412","INCLINATION":"53.0549","MEAN_ANOMALY":"256.1231","RA_OF_ASC_NODE":"46.2326","SITE":"AFETR","ARG_OF_PERICENTER":"103.9926","ELEMENT_SET_NO":"999","REF_FRAME":"TEME","SEMIMAJOR_AXIS":"6925.322","RCS_SIZE":"LARGE","EPOCH":"2023-02-26T16:03:24.109920","REV_AT_EPOCH":"14215","PERIOD":"95.592","EPHEMERIS_TYPE":"0","PERIAPSIS":"546.145","BSTAR":"0.00133600000000","TLE_LINE2":"2 46048  53.0549  46.2326 0001505 103.9926 256.1231 15.06408613142151","MEAN_MOTION_DDOT":"0.0000000000000","FILE":"3843368","NORAD_CAT_ID":"46048","MEAN_ELEMENT_THEORY":"SGP4","TIME_SYSTEM":"UTC","OBJECT_ID":"2020-055X","APOAPSIS":"548.229","CLASSIFICATION_TYPE":"U","OBJECT_TYPE":"PAYLOAD","CENTER_NAME":"EARTH","TLE_LINE1":"1 46048U 20055X   23057.66902905  .00019679  00000-0  13360-2 0  9995","LAUNCH_DATE":"2020-08-07","DECAY_DATE":null},{"MEAN_MOTION":"15.06397184","GP_ID":"227063632","MEAN_MOTION_DOT":"0.00015641","OBJECT_NAME":"STARLINK-1530","COUNTRY_CODE":"US","ECCENTRICITY":"0.00020870","MEAN_ANOMALY":"259.0153","INCLINATION":"53.0546","RA_OF_ASC_NODE":"46.2418","SITE":"AFETR","ARG_OF_PERICENTER":"101.1071","ELEMENT_SET_NO":"999","REV_AT_EPOCH":"14218","REF_FRAME":"TEME","RCS_SIZE":"LARGE","SEMIMAJOR_AXIS":"6925.357","EPOCH":"2023-02-26T15:58:06.240000","EPHEMERIS_TYPE":"0","PERIAPSIS":"545.777","PERIOD":"95.592","BSTAR":"0.00106670000000","TLE_LINE2":"2 46049  53.0546  46.2418 0002087 101.1071 259.0153 15.06397184142186","MEAN_MOTION_DDOT":"0.0000000000000","FILE":"3843368","OBJECT_ID":"2020-055Y","NORAD_CAT_ID":"46049","TIME_SYSTEM":"UTC","MEAN_ELEMENT_THEORY":"SGP4","OBJECT_TYPE":"PAYLOAD","CENTER_NAME":"EARTH","APOAPSIS":"548.668","CLASSIFICATION_TYPE":"U","LAUNCH_DATE":"2020-08-07","DECAY_DATE":null,"TLE_LINE1":"1 46049U 20055Y   23057.66535000  .00015641  00000-0  10667-2 0  9996"},{"REV_AT_EPOCH":"14219","RCS_SIZE":"LARGE","SEMIMAJOR_AXIS":"6925.361","EPOCH":"2023-02-26T16:51:10.832544","REF_FRAME":"TEME","PERIAPSIS":"546.226","EPHEMERIS_TYPE":"0","PERIOD":"95.592","GP_ID":"227062911","MEAN_MOTION":"15.06396057","COUNTRY_CODE":"US","ECCENTRICITY":"0.00014430","MEAN_MOTION_DOT":"0.00013845","OBJECT_NAME":"STARLINK-1540","SITE":"AFETR","RA_OF_ASC_NODE":"46.0836","ARG_OF_PERICENTER":"96.1474","ELEMENT_SET_NO":"999","MEAN_ANOMALY":"263.9679","INCLINATION":"53.0532","CENTER_NAME":"EARTH","OBJECT_TYPE":"PAYLOAD","APOAPSIS":"548.225","CLASSIFICATION_TYPE":"U","DECAY_DATE":null,"LAUNCH_DATE":"2020-08-07","TLE_LINE1":"1 46051U 20055AA  23057.70220871  .00013845  00000-0  94663-3 0  9994","FILE":"3843368","MEAN_MOTION_DDOT":"0.0000000000000","BSTAR":"0.00094663000000","TLE_LINE2":"2 46051  53.0532  46.0836 0001443  96.1474 263.9679 15.06396057142197","OBJECT_ID":"2020-055AA","TIME_SYSTEM":"UTC","MEAN_ELEMENT_THEORY":"SGP4","NORAD_CAT_ID":"46051"},{"INCLINATION":"53.0543","MEAN_ANOMALY":"265.3724","RA_OF_ASC_NODE":"46.1412","SITE":"AFETR","ELEMENT_SET_NO":"999","ARG_OF_PERICENTER":"94.7439","MEAN_MOTION_DOT":"0.00021638","OBJECT_NAME":"STARLINK-1541","COUNTRY_CODE":"US","ECCENTRICITY":"0.00015270","MEAN_MOTION":"15.06411138","GP_ID":"227063161","PERIOD":"95.591","EPHEMERIS_TYPE":"0","PERIAPSIS":"546.122","REF_FRAME":"TEME","RCS_SIZE":"LARGE","SEMIMAJOR_AXIS":"6925.314","EPOCH":"2023-02-26T16:29:56.871456","REV_AT_EPOCH":"14215","NORAD_CAT_ID":"46052","TIME_SYSTEM":"UTC","MEAN_ELEMENT_THEORY":"SGP4","OBJECT_ID":"2020-055AB","TLE_LINE2":"2 46052  53.0543  46.1412 0001527  94.7439 265.3724 15.06411138142150","BSTAR":"0.00146660000000","MEAN_MOTION_DDOT":"0.0000000000000","FILE":"3843368","TLE_LINE1":"1 46052U 20055AB  23057.68746379  .00021638  00000-0  14666-2 0  9991","LAUNCH_DATE":"2020-08-07","DECAY_DATE":null,"APOAPSIS":"548.237","CLASSIFICATION_TYPE":"U","OBJECT_TYPE":"PAYLOAD","CENTER_NAME":"EARTH"},{"BSTAR":"0.00159750000000","TLE_LINE2":"2 46053  53.0541  46.1352 0001319  95.8162 264.2977 15.06408229142184","FILE":"3843368","MEAN_MOTION_DDOT":"0.0000000000000","NORAD_CAT_ID":"46053","TIME_SYSTEM":"UTC","MEAN_ELEMENT_THEORY":"SGP4","OBJECT_ID":"2020-055AC","APOAPSIS":"548.102","CLASSIFICATION_TYPE":"U","OBJECT_TYPE":"PAYLOAD","CENTER_NAME":"EARTH","TLE_LINE1":"1 46053U 20055AC  23057.69114488  .00023599  00000-0  15975-2 0  9995","LAUNCH_DATE":"2020-08-07","DECAY_DATE":null,"OBJECT_NAME":"STARLINK-1543","MEAN_MOTION_DOT":"0.00023599","COUNTRY_CODE":"US","ECCENTRICITY":"0.00013190","MEAN_MOTION":"15.06408229","GP_ID":"227063913","MEAN_ANOMALY":"264.2977","INCLINATION":"53.0541","ELEMENT_SET_NO":"999","SITE":"AFETR","ARG_OF_PERICENTER":"95.8162","RA_OF_ASC_NODE":"46.1352","REF_FRAME":"TEME","SEMIMAJOR_AXIS":"6925.323","RCS_SIZE":"LARGE","EPOCH":"2023-02-26T16:35:14.917632","REV_AT_EPOCH":"14218","PERIOD":"95.592","EPHEMERIS_TYPE":"0","PERIAPSIS":"546.275"},{"OBJECT_ID":"2020-055AD","NORAD_CAT_ID":"46054","TIME_SYSTEM":"UTC","MEAN_ELEMENT_THEORY":"SGP4","BSTAR":"0.00115830000000","TLE_LINE2":"2 46054  53.0539  46.1017 0001156  95.3781 264.7340 15.06395527142186","MEAN_MOTION_DDOT":"0.0000000000000","FILE":"3843368","LAUNCH_DATE":"2020-08-07","DECAY_DATE":null,"TLE_LINE1":"1 46054U 20055AD  23057.69852354  .00017011  00000-0  11583-2 0  9990","OBJECT_TYPE":"PAYLOAD","CENTER_NAME":"EARTH","CLASSIFICATION_TYPE":"U","APOAPSIS":"548.028","MEAN_ANOMALY":"264.7340","INCLINATION":"53.0539","SITE":"AFETR","ELEMENT_SET_NO":"999","RA_OF_ASC_NODE":"46.1017","ARG_OF_PERICENTER":"95.3781","MEAN_MOTION":"15.06395527","GP_ID":"227064131","OBJECT_NAME":"STARLINK-1548","MEAN_MOTION_DOT":"0.00017011","ECCENTRICITY":"0.00011560","COUNTRY_CODE":"US","EPHEMERIS_TYPE":"0","PERIAPSIS":"546.427","PERIOD":"95.592","REV_AT_EPOCH":"14218","REF_FRAME":"TEME","EPOCH":"2023-02-26T16:45:52.433856","RCS_SIZE":"LARGE","SEMIMAJOR_AXIS":"6925.362"},{"MEAN_MOTION":"15.06397509","GP_ID":"227062411","OBJECT_NAME":"STARLINK-1554","MEAN_MOTION_DOT":"-0.00001440","ECCENTRICITY":"0.00012610","COUNTRY_CODE":"US","MEAN_ANOMALY":"268.5476","INCLINATION":"53.0572","SITE":"AFETR","RA_OF_ASC_NODE":"46.1578","ELEMENT_SET_NO":"999","ARG_OF_PERICENTER":"91.5658","REV_AT_EPOCH":"14218","REF_FRAME":"TEME","SEMIMAJOR_AXIS":"6925.356","RCS_SIZE":"LARGE","EPOCH":"2023-02-26T16:24:37.372032","EPHEMERIS_TYPE":"0","PERIAPSIS":"546.348","PERIOD":"95.592","BSTAR":"-0.00007782500000","TLE_LINE2":"2 46055  53.0572  46.1578 0001261  91.5658 268.5476 15.06397509142188","FILE":"3843368","MEAN_MOTION_DDOT":"0.0000000000000","OBJECT_ID":"2020-055AE","NORAD_CAT_ID":"46055","TIME_SYSTEM":"UTC","MEAN_ELEMENT_THEORY":"SGP4","OBJECT_TYPE":"PAYLOAD","CENTER_NAME":"EARTH","APOAPSIS":"548.094","CLASSIFICATION_TYPE":"U","LAUNCH_DATE":"2020-08-07","DECAY_DATE":null,"TLE_LINE1":"1 46055U 20055AE  23057.68376588 -.00001440  00000-0 -77825-4 0  9994"},{"EPHEMERIS_TYPE":"0","PERIAPSIS":"546.152","PERIOD":"95.592","REV_AT_EPOCH":"14219","REF_FRAME":"TEME","RCS_SIZE":"LARGE","SEMIMAJOR_AXIS":"6925.328","EPOCH":"2023-02-26T16:55:08.017824","INCLINATION":"53.0537","MEAN_ANOMALY":"263.8080","RA_OF_ASC_NODE":"46.0621","SITE":"AFETR","ELEMENT_SET_NO":"999","ARG_OF_PERICENTER":"96.3080","MEAN_MOTION":"15.06406844","GP_ID":"227062661","OBJECT_NAME":"STARLINK-1561","MEAN_MOTION_DOT":"0.00017264","ECCENTRICITY":"0.00015020","COUNTRY_CODE":"US","LAUNCH_DATE":"2020-08-07","DECAY_DATE":null,"TLE_LINE1":"1 46056U 20055AF  23057.70495391  .00017264  00000-0  11748-2 0  9991","OBJECT_TYPE":"PAYLOAD","CENTER_NAME":"EARTH","APOAPSIS":"548.233","CLASSIFICATION_TYPE":"U","OBJECT_ID":"2020-055AF","NORAD_CAT_ID":"46056","TIME_SYSTEM":"UTC","MEAN_ELEMENT_THEORY":"SGP4","TLE_LINE2":"2 46056  53.0537  46.0621 0001502  96.3080 263.8080 15.06406844142191","BSTAR":"0.00117480000000","FILE":"3843368","MEAN_MOTION_DDOT":"0.0000000000000"}];
